{
"type": "FeatureCollection",
"name": "community_ledger",
"crs": { "type": "name", "properties": { "name": "urn:ogc:def:crs:OGC:1.3:CRS84" } },
"features": [
{ "type": "Feature", "properties": { "submitter_group": "survey", "sector": "kinyin", "submission_date": "2026-07-03 00:00:00", "notes": "", "verified": false }, "geometry": { "type": "Polygon", "coordinates": [ [ [ 29.871826, -2.09792 ], [ 29.871826, -1.78499 ], [ 30.327759, -1.78499 ], [ 30.327759, -2.09792 ], [ 29.871826, -2.09792 ] ] ] } },
{ "type": "Feature", "properties": { "submitter_group": "n", "sector": "m", "submission_date": "2026-07-17", "notes": "", "verified": false }, "geometry": { "type": "Polygon", "coordinates": [ [ [ 29.826527, -1.871573 ], [ 30.059917, -2.077214 ], [ 30.123069, -1.674136 ], [ 29.826527, -1.871573 ] ] ] } }
]
}
